{
    "week": 296,
    "satellites": [
        {
            "Name": "BEIDOU-2 IGSO-1 (C06)",
            "Line1": "1 36828U 10036A   24344.94424378 -.00000030  00000+0  00000+0 0  9997",
            "Line2": "2 36828  54.2605 167.9725 0043121 205.6874 152.7209  1.00279431 52663",
            "SatelliteNumber": "36828",
            "Classification": "U",
            "LaunchYear": "10",
            "LaunchNumber": "036",
            "PieceOfLaunch": "A",
            "EpochYear": "24",
            "EpochDay": 344.94424378,
            "FirstDerivativeMeanMotion": -3e-07,
            "SecondDerivativeMeanMotion": "00000+0",
            "BSTAR": "00000+0",
            "SetNumber": "999",
            "Inclination": 54.2605,
            "RAAN": 167.9725,
            "Eccentricity": 0.0043121,
            "ArgumentOfPerigee": 205.6874,
            "MeanAnomaly": 152.7209,
            "MeanMotion": 1.00279431,
            "RevolutionNumber": "5266"
        },
        {
            "Name": "BEIDOU-2 G4 (C04)",
            "Line1": "1 37210U 10057A   24344.83873741 -.00000096  00000+0  00000+0 0  9998",
            "Line2": "2 37210   2.2718  70.2011 0009661 184.0661 286.7742  1.00271288 51735",
            "SatelliteNumber": "37210",
            "Classification": "U",
            "LaunchYear": "10",
            "LaunchNumber": "057",
            "PieceOfLaunch": "A",
            "EpochYear": "24",
            "EpochDay": 344.83873741,
            "FirstDerivativeMeanMotion": -9.6e-07,
            "SecondDerivativeMeanMotion": "00000+0",
            "BSTAR": "00000+0",
            "SetNumber": "999",
            "Inclination": 2.2718,
            "RAAN": 70.2011,
            "Eccentricity": 0.0009661,
            "ArgumentOfPerigee": 184.0661,
            "MeanAnomaly": 286.7742,
            "MeanMotion": 1.00271288,
            "RevolutionNumber": "5173"
        },
        {
            "Name": "BEIDOU-2 IGSO-2 (C07)",
            "Line1": "1 37256U 10068A   24344.75654840 -.00000220  00000+0  00000+0 0  9997",
            "Line2": "2 37256  48.5590 278.6779 0040533 216.2159 322.0315  1.00296550 51238",
            "SatelliteNumber": "37256",
            "Classification": "U",
            "LaunchYear": "10",
            "LaunchNumber": "068",
            "PieceOfLaunch": "A",
            "EpochYear": "24",
            "EpochDay": 344.7565484,
            "FirstDerivativeMeanMotion": -2.2e-06,
            "SecondDerivativeMeanMotion": "00000+0",
            "BSTAR": "00000+0",
            "SetNumber": "999",
            "Inclination": 48.559,
            "RAAN": 278.6779,
            "Eccentricity": 0.0040533,
            "ArgumentOfPerigee": 216.2159,
            "MeanAnomaly": 322.0315,
            "MeanMotion": 1.0029655,
            "RevolutionNumber": "5123"
        },
        {
            "Name": "BEIDOU-2 IGSO-3 (C08)",
            "Line1": "1 37384U 11013A   24344.61968222 -.00000197  00000+0  00000+0 0  9990",
            "Line2": "2 37384  61.6083  45.4256 0031192 182.1142 181.3637  1.00264244 50100",
            "SatelliteNumber": "37384",
            "Classification": "U",
            "LaunchYear": "11",
            "LaunchNumber": "013",
            "PieceOfLaunch": "A",
            "EpochYear": "24",
            "EpochDay": 344.61968222,
            "FirstDerivativeMeanMotion": -1.97e-06,
            "SecondDerivativeMeanMotion": "00000+0",
            "BSTAR": "00000+0",
            "SetNumber": "999",
            "Inclination": 61.6083,
            "RAAN": 45.4256,
            "Eccentricity": 0.0031192,
            "ArgumentOfPerigee": 182.1142,
            "MeanAnomaly": 181.3637,
            "MeanMotion": 1.00264244,
            "RevolutionNumber": "5010"
        },
        {
            "Name": "BEIDOU-2 IGSO-4 (C09)",
            "Line1": "1 37763U 11038A   24344.50345317  .00000081  00000+0  00000+0 0  9991",
            "Line2": "2 37763  54.5657 170.6272 0130362 228.4156 317.2432  1.00270614 49082",
            "SatelliteNumber": "37763",
            "Classification": "U",
            "LaunchYear": "11",
            "LaunchNumber": "038",
            "PieceOfLaunch": "A",
            "EpochYear": "24",
            "EpochDay": 344.50345317,
            "FirstDerivativeMeanMotion": 8.1e-07,
            "SecondDerivativeMeanMotion": "00000+0",
            "BSTAR": "00000+0",
            "SetNumber": "999",
            "Inclination": 54.5657,
            "RAAN": 170.6272,
            "Eccentricity": 0.0130362,
            "ArgumentOfPerigee": 228.4156,
            "MeanAnomaly": 317.2432,
            "MeanMotion": 1.00270614,
            "RevolutionNumber": "4908"
        },
        {
            "Name": "BEIDOU-2 IGSO-5 (C10)",
            "Line1": "1 37948U 11073A   24344.59172275 -.00000186  00000+0  00000+0 0  9992",
            "Line2": "2 37948  48.6944 278.3763 0102604 221.1549 246.1176  1.00292255 47847",
            "SatelliteNumber": "37948",
            "Classification": "U",
            "LaunchYear": "11",
            "LaunchNumber": "073",
            "PieceOfLaunch": "A",
            "EpochYear": "24",
            "EpochDay": 344.59172275,
            "FirstDerivativeMeanMotion": -1.86e-06,
            "SecondDerivativeMeanMotion": "00000+0",
            "BSTAR": "00000+0",
            "SetNumber": "999",
            "Inclination": 48.6944,
            "RAAN": 278.3763,
            "Eccentricity": 0.0102604,
            "ArgumentOfPerigee": 221.1549,
            "MeanAnomaly": 246.1176,
            "MeanMotion": 1.00292255,
            "RevolutionNumber": "4784"
        },
        {
            "Name": "BEIDOU-2 G5 (C05)",
            "Line1": "1 38091U 12008A   24345.10448802  .00000073  00000+0  00000+0 0  9995",
            "Line2": "2 38091   2.1929  71.0060 0011847 225.2261 239.4136  1.00272018 46921",
            "SatelliteNumber": "38091",
            "Classification": "U",
            "LaunchYear": "12",
            "LaunchNumber": "008",
            "PieceOfLaunch": "A",
            "EpochYear": "24",
            "EpochDay": 345.10448802,
            "FirstDerivativeMeanMotion": 7.3e-07,
            "SecondDerivativeMeanMotion": "00000+0",
            "BSTAR": "00000+0",
            "SetNumber": "999",
            "Inclination": 2.1929,
            "RAAN": 71.006,
            "Eccentricity": 0.0011847,
            "ArgumentOfPerigee": 225.2261,
            "MeanAnomaly": 239.4136,
            "MeanMotion": 1.00272018,
            "RevolutionNumber": "4692"
        },
        {
            "Name": "BEIDOU-2 M3 (C11)",
            "Line1": "1 38250U 12018A   24344.51598924 -.00000059  00000+0  00000+0 0  9993",
            "Line2": "2 38250  56.2149 323.4962 0025296 268.4374  91.2755  1.86233457 85612",
            "SatelliteNumber": "38250",
            "Classification": "U",
            "LaunchYear": "12",
            "LaunchNumber": "018",
            "PieceOfLaunch": "A",
            "EpochYear": "24",
            "EpochDay": 344.51598924,
            "FirstDerivativeMeanMotion": -5.9e-07,
            "SecondDerivativeMeanMotion": "00000+0",
            "BSTAR": "00000+0",
            "SetNumber": "999",
            "Inclination": 56.2149,
            "RAAN": 323.4962,
            "Eccentricity": 0.0025296,
            "ArgumentOfPerigee": 268.4374,
            "MeanAnomaly": 91.2755,
            "MeanMotion": 1.86233457,
            "RevolutionNumber": "8561"
        },
        {
            "Name": "BEIDOU-2 M4 (C12)",
            "Line1": "1 38251U 12018B   24344.44659161 -.00000059  00000+0  00000+0 0  9997",
            "Line2": "2 38251  56.1201 322.7567 0016211 271.5529  88.2639  1.86231900 85964",
            "SatelliteNumber": "38251",
            "Classification": "U",
            "LaunchYear": "12",
            "LaunchNumber": "018",
            "PieceOfLaunch": "B",
            "EpochYear": "24",
            "EpochDay": 344.44659161,
            "FirstDerivativeMeanMotion": -5.9e-07,
            "SecondDerivativeMeanMotion": "00000+0",
            "BSTAR": "00000+0",
            "SetNumber": "999",
            "Inclination": 56.1201,
            "RAAN": 322.7567,
            "Eccentricity": 0.0016211,
            "ArgumentOfPerigee": 271.5529,
            "MeanAnomaly": 88.2639,
            "MeanMotion": 1.862319,
            "RevolutionNumber": "8596"
        },
        {
            "Name": "BEIDOU-2 M6 (C14)",
            "Line1": "1 38775U 12050B   24343.61936154 -.00000014  00000+0  00000+0 0  9993",
            "Line2": "2 38775  56.0577  81.3409 0010978 338.9948  20.9657  1.86230818 82967",
            "SatelliteNumber": "38775",
            "Classification": "U",
            "LaunchYear": "12",
            "LaunchNumber": "050",
            "PieceOfLaunch": "B",
            "EpochYear": "24",
            "EpochDay": 343.61936154,
            "FirstDerivativeMeanMotion": -1.4e-07,
            "SecondDerivativeMeanMotion": "00000+0",
            "BSTAR": "00000+0",
            "SetNumber": "999",
            "Inclination": 56.0577,
            "RAAN": 81.3409,
            "Eccentricity": 0.0010978,
            "ArgumentOfPerigee": 338.9948,
            "MeanAnomaly": 20.9657,
            "MeanMotion": 1.86230818,
            "RevolutionNumber": "8296"
        }
    ]
}